GEOSCAN 3 (RS92S3)      
1 64893U 25155T   26165.19490818  .00018128  00000+0  53015-3 0  9994
2 64893  97.4531 135.0371 0006331 169.8407 190.2965 15.35306677 80394
INNOSAT 3 (RS92S0)      
1 64894U 25155U   26165.20126022  .00036495  00000+0  80931-3 0  9994
2 64894  97.4480 136.6260 0006013 158.7342 201.4157 15.43638426 80504
KNACKSAT-2              
1 67683U 98067XZ  26164.69872930  .00046958  00000+0  57858-3 0  9990
2 67683  51.6303 312.0209 0009611 199.6131 160.4494 15.59677165 19734
