OBJECT_NAME,OBJECT_ID,EPOCH,MEAN_MOTION,ECCENTRICITY,INCLINATION,RA_OF_ASC_NODE,ARG_OF_PERICENTER,MEAN_ANOMALY,EPHEMERIS_TYPE,CLASSIFICATION_TYPE,NORAD_CAT_ID,ELEMENT_SET_NO,REV_AT_EPOCH,BSTAR,MEAN_MOTION_DOT,MEAN_MOTION_DDOT
GEOSCAN 3 (RS92S3),2025-155T,2026-06-14T04:40:40.066752,15.35306677,.0006331,97.4531,135.0371,169.8407,190.2965,0,U,64893,999,8039,.53015E-3,.18128E-3,0
INNOSAT 3 (RS92S0),2025-155U,2026-06-14T04:49:48.883008,15.43638426,.0006013,97.4480,136.6260,158.7342,201.4157,0,U,64894,999,8050,.80931E-3,.36495E-3,0
KNACKSAT-2,1998-067XZ,2026-06-13T16:46:10.211520,15.59677165,.00096113,51.6303,312.0209,199.6131,160.4494,0,U,67683,999,1973,.57858406E-3,.46958E-3,0
